[{"OBJECT_NAME":"HULIANWANG DIGUI-97","OBJECT_ID":"2025-258B","EPOCH":"2026-03-06T18:28:05.397024","MEAN_MOTION":13.29332594,"ECCENTRICITY":4.32e-5,"INCLINATION":50.0015,"RA_OF_ASC_NODE":303.2214,"ARG_OF_PERICENTER":102.645,"MEAN_ANOMALY":257.4471,"EPHEMERIS_TYPE":0,"CLASSIFICATION_TYPE":"U","NORAD_CAT_ID":66413,"ELEMENT_SET_NO":999,"REV_AT_EPOCH":1610,"BSTAR":0.00013943,"MEAN_MOTION_DOT":-5.9e-7,"MEAN_MOTION_DDOT":0},{"OBJECT_NAME":"HULIANWANG DIGUI-98","OBJECT_ID":"2025-258C","EPOCH":"2026-03-06T18:16:01.290720","MEAN_MOTION":13.29334184,"ECCENTRICITY":4.91e-5,"INCLINATION":50.0052,"RA_OF_ASC_NODE":303.2202,"ARG_OF_PERICENTER":114.1048,"MEAN_ANOMALY":245.9875,"EPHEMERIS_TYPE":0,"CLASSIFICATION_TYPE":"U","NORAD_CAT_ID":66414,"ELEMENT_SET_NO":999,"REV_AT_EPOCH":1610,"BSTAR":0.00014238,"MEAN_MOTION_DOT":-5.8e-7,"MEAN_MOTION_DDOT":0},{"OBJECT_NAME":"HULIANWANG DIGUI-99","OBJECT_ID":"2025-258D","EPOCH":"2026-03-06T19:16:12.441792","MEAN_MOTION":13.29331632,"ECCENTRICITY":3.68e-5,"INCLINATION":50.005,"RA_OF_ASC_NODE":302.7711,"ARG_OF_PERICENTER":95.2049,"MEAN_ANOMALY":264.8866,"EPHEMERIS_TYPE":0,"CLASSIFICATION_TYPE":"U","NORAD_CAT_ID":66415,"ELEMENT_SET_NO":999,"REV_AT_EPOCH":1610,"BSTAR":0.00013925,"MEAN_MOTION_DOT":-5.9e-7,"MEAN_MOTION_DDOT":0},{"OBJECT_NAME":"HULIANWANG DIGUI-100","OBJECT_ID":"2025-258E","EPOCH":"2026-03-06T19:52:15.417408","MEAN_MOTION":13.29334699,"ECCENTRICITY":3.56e-5,"INCLINATION":50.0054,"RA_OF_ASC_NODE":302.9094,"ARG_OF_PERICENTER":95.5634,"MEAN_ANOMALY":264.5278,"EPHEMERIS_TYPE":0,"CLASSIFICATION_TYPE":"U","NORAD_CAT_ID":66416,"ELEMENT_SET_NO":999,"REV_AT_EPOCH":1612,"BSTAR":0.00014299,"MEAN_MOTION_DOT":-5.8e-7,"MEAN_MOTION_DDOT":0},{"OBJECT_NAME":"HULIANWANG DIGUI-101","OBJECT_ID":"2025-258F","EPOCH":"2026-03-06T19:40:14.983104","MEAN_MOTION":13.29332822,"ECCENTRICITY":3.84e-5,"INCLINATION":50.0004,"RA_OF_ASC_NODE":302.8069,"ARG_OF_PERICENTER":89.8744,"MEAN_ANOMALY":270.2172,"EPHEMERIS_TYPE":0,"CLASSIFICATION_TYPE":"U","NORAD_CAT_ID":66417,"ELEMENT_SET_NO":999,"REV_AT_EPOCH":1612,"BSTAR":0.00012524,"MEAN_MOTION_DOT":-6.6e-7,"MEAN_MOTION_DDOT":0},{"OBJECT_NAME":"HULIANWANG DIGUI-102","OBJECT_ID":"2025-258G","EPOCH":"2026-03-06T19:04:06.976416","MEAN_MOTION":13.29334688,"ECCENTRICITY":3.87e-5,"INCLINATION":50.0017,"RA_OF_ASC_NODE":302.6876,"ARG_OF_PERICENTER":107.3017,"MEAN_ANOMALY":252.7897,"EPHEMERIS_TYPE":0,"CLASSIFICATION_TYPE":"U","NORAD_CAT_ID":66418,"ELEMENT_SET_NO":999,"REV_AT_EPOCH":1611,"BSTAR":0.00012697,"MEAN_MOTION_DOT":-6.5e-7,"MEAN_MOTION_DDOT":0},{"OBJECT_NAME":"HULIANWANG DIGUI-103","OBJECT_ID":"2025-258H","EPOCH":"2026-03-06T18:52:07.119264","MEAN_MOTION":13.29333723,"ECCENTRICITY":3.23e-5,"INCLINATION":50.0011,"RA_OF_ASC_NODE":302.6361,"ARG_OF_PERICENTER":90.5813,"MEAN_ANOMALY":269.5096,"EPHEMERIS_TYPE":0,"CLASSIFICATION_TYPE":"U","NORAD_CAT_ID":66419,"ELEMENT_SET_NO":999,"REV_AT_EPOCH":1611,"BSTAR":0.00013089,"MEAN_MOTION_DOT":-6.3e-7,"MEAN_MOTION_DDOT":0},{"OBJECT_NAME":"HULIANWANG DIGUI-104","OBJECT_ID":"2025-258J","EPOCH":"2026-03-06T18:40:06.718656","MEAN_MOTION":13.29333124,"ECCENTRICITY":4.2e-5,"INCLINATION":50.0028,"RA_OF_ASC_NODE":302.6154,"ARG_OF_PERICENTER":112.5825,"MEAN_ANOMALY":247.5092,"EPHEMERIS_TYPE":0,"CLASSIFICATION_TYPE":"U","NORAD_CAT_ID":66420,"ELEMENT_SET_NO":999,"REV_AT_EPOCH":1610,"BSTAR":0.000124,"MEAN_MOTION_DOT":-6.6e-7,"MEAN_MOTION_DDOT":0},{"OBJECT_NAME":"HULIANWANG DIGUI-105","OBJECT_ID":"2025-285A","EPOCH":"2026-03-06T18:45:44.083008","MEAN_MOTION":13.29330721,"ECCENTRICITY":9.0e-6,"INCLINATION":50.0045,"RA_OF_ASC_NODE":153.4929,"ARG_OF_PERICENTER":306.2588,"MEAN_ANOMALY":53.8275,"EPHEMERIS_TYPE":0,"CLASSIFICATION_TYPE":"U","NORAD_CAT_ID":66915,"ELEMENT_SET_NO":999,"REV_AT_EPOCH":1243,"BSTAR":9.3527e-5,"MEAN_MOTION_DOT":-8.1e-7,"MEAN_MOTION_DDOT":0},{"OBJECT_NAME":"HULIANWANG DIGUI-106","OBJECT_ID":"2025-285B","EPOCH":"2026-03-04T19:39:18.815328","MEAN_MOTION":13.29477796,"ECCENTRICITY":0.00070993,"INCLINATION":50.0043,"RA_OF_ASC_NODE":160.4766,"ARG_OF_PERICENTER":27.2323,"MEAN_ANOMALY":332.8921,"EPHEMERIS_TYPE":0,"CLASSIFICATION_TYPE":"U","NORAD_CAT_ID":66916,"ELEMENT_SET_NO":999,"REV_AT_EPOCH":1217,"BSTAR":-1.4099124,"MEAN_MOTION_DOT":-0.00628381,"MEAN_MOTION_DDOT":0},{"OBJECT_NAME":"HULIANWANG DIGUI-107","OBJECT_ID":"2025-285C","EPOCH":"2026-03-06T18:21:41.088096","MEAN_MOTION":13.29329983,"ECCENTRICITY":7.2e-6,"INCLINATION":50.0031,"RA_OF_ASC_NODE":153.3879,"ARG_OF_PERICENTER":311.5758,"MEAN_ANOMALY":48.5108,"EPHEMERIS_TYPE":0,"CLASSIFICATION_TYPE":"U","NORAD_CAT_ID":66917,"ELEMENT_SET_NO":999,"REV_AT_EPOCH":1243,"BSTAR":-0.00028916,"MEAN_MOTION_DOT":-2.58e-6,"MEAN_MOTION_DDOT":0},{"OBJECT_NAME":"HULIANWANG DIGUI-108","OBJECT_ID":"2025-285D","EPOCH":"2026-03-06T18:09:38.640672","MEAN_MOTION":13.29330351,"ECCENTRICITY":5.6e-6,"INCLINATION":50.0043,"RA_OF_ASC_NODE":153.3616,"ARG_OF_PERICENTER":315.6608,"MEAN_ANOMALY":44.4259,"EPHEMERIS_TYPE":0,"CLASSIFICATION_TYPE":"U","NORAD_CAT_ID":66918,"ELEMENT_SET_NO":999,"REV_AT_EPOCH":1243,"BSTAR":-0.00026169,"MEAN_MOTION_DOT":-2.45e-6,"MEAN_MOTION_DDOT":0},{"OBJECT_NAME":"HULIANWANG DIGUI-109","OBJECT_ID":"2025-285E","EPOCH":"2026-03-06T17:57:37.009728","MEAN_MOTION":13.29330287,"ECCENTRICITY":5.9e-6,"INCLINATION":50.0077,"RA_OF_ASC_NODE":153.3384,"ARG_OF_PERICENTER":316.3289,"MEAN_ANOMALY":43.7579,"EPHEMERIS_TYPE":0,"CLASSIFICATION_TYPE":"U","NORAD_CAT_ID":66919,"ELEMENT_SET_NO":999,"REV_AT_EPOCH":1244,"BSTAR":-0.00030841,"MEAN_MOTION_DOT":-2.67e-6,"MEAN_MOTION_DDOT":0},{"OBJECT_NAME":"HULIANWANG DIGUI-110","OBJECT_ID":"2025-285F","EPOCH":"2026-03-06T17:45:35.815968","MEAN_MOTION":13.29330198,"ECCENTRICITY":5.9e-6,"INCLINATION":50.01,"RA_OF_ASC_NODE":153.3211,"ARG_OF_PERICENTER":305.4731,"MEAN_ANOMALY":54.6135,"EPHEMERIS_TYPE":0,"CLASSIFICATION_TYPE":"U","NORAD_CAT_ID":66920,"ELEMENT_SET_NO":999,"REV_AT_EPOCH":1243,"BSTAR":8.0854e-5,"MEAN_MOTION_DOT":-8.7e-7,"MEAN_MOTION_DDOT":0},{"OBJECT_NAME":"HULIANWANG DIGUI-111","OBJECT_ID":"2025-285G","EPOCH":"2026-03-06T19:21:49.438944","MEAN_MOTION":13.29329882,"ECCENTRICITY":6.7e-6,"INCLINATION":50.0126,"RA_OF_ASC_NODE":153.0216,"ARG_OF_PERICENTER":308.6351,"MEAN_ANOMALY":51.4515,"EPHEMERIS_TYPE":0,"CLASSIFICATION_TYPE":"U","NORAD_CAT_ID":66921,"ELEMENT_SET_NO":999,"REV_AT_EPOCH":1244,"BSTAR":-0.00029358,"MEAN_MOTION_DOT":-2.6e-6,"MEAN_MOTION_DDOT":0},{"OBJECT_NAME":"HULIANWANG DIGUI-112","OBJECT_ID":"2025-285H","EPOCH":"2026-03-06T19:09:47.699136","MEAN_MOTION":13.29330453,"ECCENTRICITY":8.9e-6,"INCLINATION":50.0088,"RA_OF_ASC_NODE":152.9502,"ARG_OF_PERICENTER":316.5172,"MEAN_ANOMALY":43.5693,"EPHEMERIS_TYPE":0,"CLASSIFICATION_TYPE":"U","NORAD_CAT_ID":66922,"ELEMENT_SET_NO":999,"REV_AT_EPOCH":1244,"BSTAR":-0.00026373,"MEAN_MOTION_DOT":-2.46e-6,"MEAN_MOTION_DDOT":0}]
