HULIANWANG DIGUI-97     
1 66413U 25258B   26065.76950691 -.00000059  00000+0  13943-3 0  9991
2 66413  50.0015 303.2214 0000432 102.6450 257.4471 13.29332594 16104
HULIANWANG DIGUI-98     
1 66414U 25258C   26065.76112605 -.00000058  00000+0  14238-3 0  9994
2 66414  50.0052 303.2202 0000491 114.1048 245.9875 13.29334184 16106
HULIANWANG DIGUI-99     
1 66415U 25258D   26065.80292178 -.00000059  00000+0  13925-3 0  9997
2 66415  50.0050 302.7711 0000368  95.2049 264.8866 13.29331632 16102
HULIANWANG DIGUI-100    
1 66416U 25258E   26065.82795622 -.00000058  00000+0  14299-3 0  9996
2 66416  50.0054 302.9094 0000356  95.5634 264.5278 13.29334699 16125
HULIANWANG DIGUI-101    
1 66417U 25258F   26065.81961786 -.00000066  00000+0  12524-3 0  9990
2 66417  50.0004 302.8069 0000384  89.8744 270.2172 13.29332822 16124
HULIANWANG DIGUI-102    
1 66418U 25258G   26065.79452519 -.00000065  00000+0  12697-3 0  9997
2 66418  50.0017 302.6876 0000387 107.3017 252.7897 13.29334688 16115
HULIANWANG DIGUI-103    
1 66419U 25258H   26065.78619351 -.00000063  00000+0  13089-3 0  9990
2 66419  50.0011 302.6361 0000323  90.5813 269.5096 13.29333723 16112
HULIANWANG DIGUI-104    
1 66420U 25258J   26065.77785554 -.00000066  00000+0  12400-3 0  9999
2 66420  50.0028 302.6154 0000420 112.5825 247.5092 13.29333124 16104
HULIANWANG DIGUI-105    
1 66915U 25285A   26065.78176022 -.00000081  00000+0  93527-4 0  9990
2 66915  50.0045 153.4929 0000090 306.2588  53.8275 13.29330721 12438
HULIANWANG DIGUI-106    
1 66916U 25285B   26063.81896777 -.00628381  00000+0 -14099+1 0  9992
2 66916  50.0043 160.4766 0007099  27.2323 332.8921 13.29477796 12170
HULIANWANG DIGUI-107    
1 66917U 25285C   26065.76505889 -.00000258  00000+0 -28916-3 0  9993
2 66917  50.0031 153.3879 0000072 311.5758  48.5108 13.29329983 12430
HULIANWANG DIGUI-108    
1 66918U 25285D   26065.75669723 -.00000245  00000+0 -26169-3 0  9995
2 66918  50.0043 153.3616 0000056 315.6608  44.4259 13.29330351 12437
HULIANWANG DIGUI-109    
1 66919U 25285E   26065.74834502 -.00000267  00000+0 -30841-3 0  9990
2 66919  50.0077 153.3384 0000059 316.3289  43.7579 13.29330287 12449
HULIANWANG DIGUI-110    
1 66920U 25285F   26065.73999787 -.00000087  00000+0  80854-4 0  9997
2 66920  50.0100 153.3211 0000059 305.4731  54.6135 13.29330198 12437
HULIANWANG DIGUI-111    
1 66921U 25285G   26065.80682221 -.00000260  00000+0 -29358-3 0  9993
2 66921  50.0126 153.0216 0000067 308.6351  51.4515 13.29329882 12446
HULIANWANG DIGUI-112    
1 66922U 25285H   26065.79846874 -.00000246  00000+0 -26373-3 0  9996
2 66922  50.0088 152.9502 0000089 316.5172  43.5693 13.29330453 12448
